{"type": "FeatureCollection", "features": [ {"type": "Feature", "properties": {"norad_id": 66400, "name": "STARLINK-35667", "group": "last-30-days", "lat": 52.36275290399151, "lon": -2.9004304208573535, "alt_km": 439.1906615638327, "timestamp": "2025-12-09T05:43:19.507940+00:00", "meta": {"OBJECT_NAME": "STARLINK-35667", "OBJECT_ID": "2025-257W", "EPOCH": "2025-12-08T20:00:01.999008", "MEAN_MOTION": 15.39565188, "ECCENTRICITY": 0.0001518, "INCLINATION": 53.1598, "RA_OF_ASC_NODE": 282.5441, "ARG_OF_PERICENTER": 93.4711, "MEAN_ANOMALY": 261.9837, "EPHEMERIS_TYPE": 0, "CLASSIFICATION_TYPE": "U", "NORAD_CAT_ID": 66400, "ELEMENT_SET_NO": 999, "REV_AT_EPOCH": 586, "BSTAR": 0.0016712, "MEAN_MOTION_DOT": 0.00066915, "MEAN_MOTION_DDOT": 0}, "tle": {"line1": "1 66400U 25257W   25342.83335647  .00066915  00000+0  16712-2 0  9997", "line2": "2 66400  53.1598 282.5441 0001518  93.4711 261.9837 15.39565188  5861"}}, "geometry": {"type": "Point", "coordinates": [-2.9004304208573535, 52.36275290399151]}}, {"type": "Feature", "properties": {"norad_id": 66401, "name": "STARLINK-35668", "group": "last-30-days", "lat": 52.66920386105889, "lon": 0.06847771944264996, "alt_km": 439.08971826214565, "timestamp": "2025-12-09T05:43:19.507951+00:00", "meta": {"OBJECT_NAME": "STARLINK-35668", "OBJECT_ID": "2025-257X", "EPOCH": "2025-12-08T20:00:01.999008", "MEAN_MOTION": 15.39561995, "ECCENTRICITY": 0.0001645, "INCLINATION": 53.1598, "RA_OF_ASC_NODE": 282.5406, "ARG_OF_PERICENTER": 98.8188, "MEAN_ANOMALY": 258.473, "EPHEMERIS_TYPE": 0, "CLASSIFICATION_TYPE": "U", "NORAD_CAT_ID": 66401, "ELEMENT_SET_NO": 999, "REV_AT_EPOCH": 586, "BSTAR": 0.001699, "MEAN_MOTION_DOT": 0.00068038, "MEAN_MOTION_DDOT": 0}, "tle": {"line1": "1 66401U 25257X   25342.83335647  .00068038  00000+0  16990-2 0  9994", "line2": "2 66401  53.1598 282.5406 0001645  98.8188 258.4730 15.39561995  5866"}}, "geometry": {"type": "Point", "coordinates": [0.06847771944264996, 52.66920386105889]}}, {"type": "Feature", "properties": {"norad_id": 66402, "name": "STARLINK-35644", "group": "last-30-days", "lat": 42.630867511679966, "lon": -35.67584299986518, "alt_km": 440.93867436799246, "timestamp": "2025-12-09T05:43:19.507962+00:00", "meta": {"OBJECT_NAME": "STARLINK-35644", "OBJECT_ID": "2025-257Y", "EPOCH": "2025-12-08T20:00:01.999008", "MEAN_MOTION": 15.39618801, "ECCENTRICITY": 0.0001413, "INCLINATION": 53.1601, "RA_OF_ASC_NODE": 282.5919, "ARG_OF_PERICENTER": 99.4129, "MEAN_ANOMALY": 232.1066, "EPHEMERIS_TYPE": 0, "CLASSIFICATION_TYPE": "U", "NORAD_CAT_ID": 66402, "ELEMENT_SET_NO": 999, "REV_AT_EPOCH": 586, "BSTAR": -0.00053764, "MEAN_MOTION_DOT": -0.00021842, "MEAN_MOTION_DDOT": 0}, "tle": {"line1": "1 66402U 25257Y   25342.83335647 -.00021842  00000+0 -53764-3 0  9990", "line2": "2 66402  53.1601 282.5919 0001413  99.4129 232.1066 15.39618801  5866"}}, "geometry": {"type": "Point", "coordinates": [-35.67584299986518, 42.630867511679966]}}, {"type": "Feature", "properties": {"norad_id": 66403, "name": "STARLINK-35602", "group": "last-30-days", "lat": 49.68966922979811, "lon": 38.487716001770956, "alt_km": 439.19036259463974, "timestamp": "2025-12-09T05:43:19.507973+00:00", "meta": {"OBJECT_NAME": "STARLINK-35602", "OBJECT_ID": "2025-257Z", "EPOCH": "2025-12-08T20:00:01.999008", "MEAN_MOTION": 15.41549048, "ECCENTRICITY": 0.000129, "INCLINATION": 53.1596, "RA_OF_ASC_NODE": 282.4948, "ARG_OF_PERICENTER": 94.4322, "MEAN_ANOMALY": 285.2974, "EPHEMERIS_TYPE": 0, "CLASSIFICATION_TYPE": "U", "NORAD_CAT_ID": 66403, "ELEMENT_SET_NO": 999, "REV_AT_EPOCH": 586, "BSTAR": -0.054288, "MEAN_MOTION_DOT": -0.02055616, "MEAN_MOTION_DDOT": 0}, "tle": {"line1": "1 66403U 25257Z   25342.83335647 -.02055616  00000+0 -54288-1 0  9999", "line2": "2 66403  53.1596 282.4948 0001290  94.4322 285.2974 15.41549048  5860"}}, "geometry": {"type": "Point", "coordinates": [38.487716001770956, 49.68966922979811]}}, {"type": "Feature", "properties": {"norad_id": 66404, "name": "STARLINK-35691", "group": "last-30-days", "lat": 48.973916683158215, "lon": 41.07406199712449, "alt_km": 439.3766487797102, "timestamp": "2025-12-09T05:43:19.507983+00:00", "meta": {"OBJECT_NAME": "STARLINK-35691", "OBJECT_ID": "2025-257AA", "EPOCH": "2025-12-08T20:00:01.999008", "MEAN_MOTION": 15.41534739, "ECCENTRICITY": 0.0001192, "INCLINATION": 53.1596, "RA_OF_ASC_NODE": 282.4907, "ARG_OF_PERICENTER": 100.6321, "MEAN_ANOMALY": 280.9463, "EPHEMERIS_TYPE": 0, "CLASSIFICATION_TYPE": "U", "NORAD_CAT_ID": 66404, "ELEMENT_SET_NO": 999, "REV_AT_EPOCH": 586, "BSTAR": -0.054165, "MEAN_MOTION_DOT": -0.02050561, "MEAN_MOTION_DDOT": 0}, "tle": {"line1": "1 66404U 25257AA  25342.83335647 -.02050561  00000+0 -54165-1 0  9998", "line2": "2 66404  53.1596 282.4907 0001192 100.6321 280.9463 15.41534739  5862"}}, "geometry": {"type": "Point", "coordinates": [41.07406199712449, 48.973916683158215]}}, {"type": "Feature", "properties": {"norad_id": 66405, "name": "STARLINK-35683", "group": "last-30-days", "lat": 36.95946049549393, "lon": 66.19249237909237, "alt_km": 432.27690262251053, "timestamp": "2025-12-09T05:43:19.507994+00:00", "meta": {"OBJECT_NAME": "STARLINK-35683", "OBJECT_ID": "2025-257AB", "EPOCH": "2025-12-08T20:00:01.999008", "MEAN_MOTION": 15.44596643, "ECCENTRICITY": 0.0001143, "INCLINATION": 53.159, "RA_OF_ASC_NODE": 282.4562, "ARG_OF_PERICENTER": 96.8529, "MEAN_ANOMALY": 302.0279, "EPHEMERIS_TYPE": 0, "CLASSIFICATION_TYPE": "U", "NORAD_CAT_ID": 66405, "ELEMENT_SET_NO": 999, "REV_AT_EPOCH": 571, "BSTAR": -0.048327, "MEAN_MOTION_DOT": -0.02032504, "MEAN_MOTION_DDOT": 0}, "tle": {"line1": "1 66405U 25257AB  25342.83335647 -.02032504  00000+0 -48327-1 0  9999", "line2": "2 66405  53.1590 282.4562 0001143  96.8529 302.0279 15.44596643  5716"}}, "geometry": {"type": "Point", "coordinates": [66.19249237909237, 36.95946049549393]}}, {"type": "Feature", "properties": {"norad_id": 66406, "name": "STARLINK-34840", "group": "last-30-days", "lat": 20.236055957438893, "lon": 84.4441896120927, "alt_km": 415.8792798772147, "timestamp": "2025-12-09T05:43:19.508005+00:00", "meta": {"OBJECT_NAME": "STARLINK-34840", "OBJECT_ID": "2025-257AC", "EPOCH": "2025-12-08T13:34:41.658816", "MEAN_MOTION": 15.49353814, "ECCENTRICITY": 4.215e-05, "INCLINATION": 53.1588, "RA_OF_ASC_NODE": 283.707, "ARG_OF_PERICENTER": 123.5038, "MEAN_ANOMALY": 236.6011, "EPHEMERIS_TYPE": 0, "CLASSIFICATION_TYPE": "U", "NORAD_CAT_ID": 66406, "ELEMENT_SET_NO": 999, "REV_AT_EPOCH": 567, "BSTAR": 0.0019441938, "MEAN_MOTION_DOT": 0.00109379, "MEAN_MOTION_DDOT": 0}, "tle": {"line1": "1 66406U 25257AC  25342.56575994  .00109379  00000+0  19442-2 0  9999", "line2": "2 66406  53.1588 283.7070 0000421 123.5038 236.6011 15.49353814  5670"}}, "geometry": {"type": "Point", "coordinates": [84.4441896120927, 20.236055957438893]}}, {"type": "Feature", "properties": {"norad_id": 66407, "name": "STARLINK-35686", "group": "last-30-days", "lat": 26.922903240091063, "lon": 78.12678301713738, "alt_km": 425.16908243461967, "timestamp": "2025-12-09T05:43:19.508016+00:00", "meta": {"OBJECT_NAME": "STARLINK-35686", "OBJECT_ID": "2025-257AD", "EPOCH": "2025-12-08T16:00:03.000096", "MEAN_MOTION": 15.48445372, "ECCENTRICITY": 0.000124, "INCLINATION": 53.1591, "RA_OF_ASC_NODE": 283.232, "ARG_OF_PERICENTER": 85.7776, "MEAN_ANOMALY": 113.5078, "EPHEMERIS_TYPE": 0, "CLASSIFICATION_TYPE": "U", "NORAD_CAT_ID": 66407, "ELEMENT_SET_NO": 999, "REV_AT_EPOCH": 584, "BSTAR": -0.042879, "MEAN_MOTION_DOT": -0.02058872, "MEAN_MOTION_DDOT": 0}, "tle": {"line1": "1 66407U 25257AD  25342.66670139 -.02058872  00000+0 -42879-1 0  9992", "line2": "2 66407  53.1591 283.2320 0001240  85.7776 113.5078 15.48445372  5841"}}, "geometry": {"type": "Point", "coordinates": [78.12678301713738, 26.922903240091063]}}, {"type": "Feature", "properties": {"norad_id": 66408, "name": "STARLINK-35679", "group": "last-30-days", "lat": 21.920597866643764, "lon": 82.93382967399452, "alt_km": 415.95870507403106, "timestamp": "2025-12-09T05:43:19.508027+00:00", "meta": {"OBJECT_NAME": "STARLINK-35679", "OBJECT_ID": "2025-257AE", "EPOCH": "2025-12-08T20:00:01.999008", "MEAN_MOTION": 15.49342515, "ECCENTRICITY": 0.0001213, "INCLINATION": 53.1588, "RA_OF_ASC_NODE": 282.4317, "ARG_OF_PERICENTER": 100.0046, "MEAN_ANOMALY": 311.5458, "EPHEMERIS_TYPE": 0, "CLASSIFICATION_TYPE": "U", "NORAD_CAT_ID": 66408, "ELEMENT_SET_NO": 999, "REV_AT_EPOCH": 586, "BSTAR": -0.0012994, "MEAN_MOTION_DOT": -0.00072139, "MEAN_MOTION_DDOT": 0}, "tle": {"line1": "1 66408U 25257AE  25342.83335647 -.00072139  00000+0 -12994-2 0  9990", "line2": "2 66408  53.1588 282.4317 0001213 100.0046 311.5458 15.49342515  5866"}}, "geometry": {"type": "Point", "coordinates": [82.93382967399452, 21.920597866643764]}}, {"type": "Feature", "properties": {"norad_id": 66409, "name": "CHUTIAN-2 A", "group": "last-30-days", "lat": 11.809904260094662, "lon": -130.19494244746093, "alt_km": 718.1618112843753, "timestamp": "2025-12-09T05:43:19.508038+00:00", "meta": {"OBJECT_NAME": "CHUTIAN-2 A", "OBJECT_ID": "2025-256A", "EPOCH": "2025-12-08T20:40:06.627648", "MEAN_MOTION": 14.49934188, "ECCENTRICITY": 0.0013528, "INCLINATION": 98.2769, "RA_OF_ASC_NODE": 47.6904, "ARG_OF_PERICENTER": 189.5995, "MEAN_ANOMALY": 170.4943, "EPHEMERIS_TYPE": 0, "CLASSIFICATION_TYPE": "U", "NORAD_CAT_ID": 66409, "ELEMENT_SET_NO": 999, "REV_AT_EPOCH": 431, "BSTAR": 0.00048068, "MEAN_MOTION_DOT": 1.817e-05, "MEAN_MOTION_DDOT": 0}, "tle": {"line1": "1 66409U 25256A   25342.86118782  .00001817  00000+0  48068-3 0  9997", "line2": "2 66409  98.2769  47.6904 0013528 189.5995 170.4943 14.49934188  4310"}}, "geometry": {"type": "Point", "coordinates": [-130.19494244746093, 11.809904260094662]}}]}